[{"OBJECT_NAME":"STARLINK-3198","OBJECT_ID":"2021-115AR","EPOCH":"2026-03-09T13:34:34.817664","MEAN_MOTION":15.0879053,"ECCENTRICITY":0.0001285,"INCLINATION":53.2172,"RA_OF_ASC_NODE":139.6726,"ARG_OF_PERICENTER":113.3539,"MEAN_ANOMALY":246.7588,"EPHEMERIS_TYPE":0,"CLASSIFICATION_TYPE":"U","NORAD_CAT_ID":49763,"ELEMENT_SET_NO":999,"REV_AT_EPOCH":23566,"BSTAR":0.00025397,"MEAN_MOTION_DOT":3.751e-5,"MEAN_MOTION_DDOT":0},{"OBJECT_NAME":"FENGYUN 1C DEB","OBJECT_ID":"1999-025DDJ","EPOCH":"2026-03-01T18:34:40.606176","MEAN_MOTION":14.6204627,"ECCENTRICITY":0.02210591,"INCLINATION":98.62,"RA_OF_ASC_NODE":179.8313,"ARG_OF_PERICENTER":250.664,"MEAN_ANOMALY":107.0539,"EPHEMERIS_TYPE":0,"CLASSIFICATION_TYPE":"U","NORAD_CAT_ID":33625,"ELEMENT_SET_NO":999,"REV_AT_EPOCH":62545,"BSTAR":0.0012246157,"MEAN_MOTION_DOT":8.674e-5,"MEAN_MOTION_DDOT":0}]
